OBJECT_NAME,OBJECT_ID,EPOCH,MEAN_MOTION,ECCENTRICITY,INCLINATION,RA_OF_ASC_NODE,ARG_OF_PERICENTER,MEAN_ANOMALY,EPHEMERIS_TYPE,CLASSIFICATION_TYPE,NORAD_CAT_ID,ELEMENT_SET_NO,REV_AT_EPOCH,BSTAR,MEAN_MOTION_DOT,MEAN_MOTION_DDOT
STARLINK-32180,2024-138V,2026-05-23T21:37:25.984416,15.31694236,.0001242,53.1615,320.1900,75.7004,284.4136,0,U,60374,999,10214,-.26469E-4,-.1186E-4,0
STARLINK-32281,2024-138W,2026-05-23T21:19:02.462016,15.30195177,.0001298,53.1614,320.1130,96.5862,263.5286,0,U,60375,999,10204,.37454E-5,-.248E-5,0
STARLINK-32277,2024-138X,2026-05-24T04:23:52.944288,15.30196381,.0001063,53.1603,319.1090,94.7240,265.3883,0,U,60376,999,10218,.3442E-4,.66E-5,0
STARLINK-32269,2024-138Y,2026-05-23T21:44:52.293120,15.30197633,.0001098,53.1600,320.2205,76.8594,283.2529,0,U,60377,999,10214,.36135E-4,.711E-5,0
QIANFAN-1,2024-140A,2026-05-24T04:30:37.331712,13.51010345,.0019589,88.9713,282.4205,105.6408,254.6906,0,U,60379,999,8928,.10518E-3,.8E-6,0
QIANFAN-2,2024-140B,2026-05-24T03:25:17.982336,13.51005700,.0014654,88.9700,282.2423,81.8956,278.3857,0,U,60380,999,8933,.11894E-3,.89E-6,0
QIANFAN-3,2024-140C,2026-05-24T03:37:09.571008,13.51006694,.0015935,88.9692,282.3618,92.6145,267.6831,0,U,60381,999,8924,.1305E-3,.97E-6,0
QIANFAN-4,2024-140D,2026-05-24T03:01:38.643744,13.51009106,.0014934,88.9717,282.3029,84.1755,276.1099,0,U,60382,999,8936,.1163E-3,.87E-6,0
QIANFAN-5,2024-140E,2026-05-24T04:12:43.886016,13.51008303,.0017266,88.9691,282.3841,102.2877,258.0208,0,U,60383,999,8923,.10776E-3,.82E-6,0
QIANFAN-6,2024-140F,2026-05-24T02:55:41.757312,13.51008825,.0015119,88.9719,282.1798,89.2254,271.0630,0,U,60384,999,8942,.11596E-3,.87E-6,0
QIANFAN-7,2024-140G,2026-05-24T03:09:10.590048,14.27811629,.0013764,88.9756,274.6016,217.8816,142.1411,0,U,60385,999,9356,.15042E-3,.386E-5,0
QIANFAN-8,2024-140H,2026-05-24T03:07:26.553216,13.51005291,.0018587,88.9720,282.4186,90.7114,269.6167,0,U,60386,999,8927,.10105E-3,.78E-6,0
QIANFAN-9,2024-140J,2026-05-24T04:18:42.812352,13.51010706,.0018285,88.9717,282.4856,90.4246,269.9000,0,U,60387,999,8926,.1102E-3,.83E-6,0
QIANFAN-10,2024-140K,2026-05-24T04:24:41.894208,13.51011542,.0016394,88.9729,281.8487,70.5202,289.7718,0,U,60388,999,8939,.11017E-3,.83E-6,0
QIANFAN-11,2024-140L,2026-05-24T03:31:07.180896,13.51006003,.0016318,88.9653,282.3180,90.5052,269.7969,0,U,60389,999,8904,.1202E-3,.9E-6,0
QIANFAN-12,2024-140M,2026-05-24T04:00:56.776320,13.51008072,.0015202,88.9696,282.4301,97.6734,262.6144,0,U,60390,999,8917,.10916E-3,.83E-6,0
QIANFAN-13,2024-140N,2026-05-24T03:19:24.699648,13.51008121,.0015021,88.9708,282.5528,100.1264,260.1583,0,U,60391,999,8919,.1089E-3,.83E-6,0
QIANFAN-14,2024-140P,2026-05-24T03:54:50.404032,13.51009238,.0018721,88.9687,282.4134,99.7474,260.5792,0,U,60392,999,8920,.12654E-3,.94E-6,0
QIANFAN-15,2024-140Q,2026-05-24T04:06:44.220096,13.51010998,.0014403,88.9711,282.4076,88.1298,272.1503,0,U,60393,999,8919,.97588E-4,.75E-6,0
QIANFAN-16,2024-140R,2026-05-24T03:49:10.327584,13.51005789,.0016665,88.9714,282.5337,103.2476,257.0535,0,U,60394,999,8910,.12767E-3,.95E-6,0
QIANFAN-17,2024-140S,2026-05-24T03:43:00.273792,13.51006555,.0017032,88.9725,282.5979,97.7044,262.6042,0,U,60395,999,9006,.12875E-3,.95E-6,0
QIANFAN-18,2024-140T,2026-05-24T03:13:22.802880,13.51010863,.0016193,88.9719,282.1224,82.6010,277.6981,0,U,60396,999,8945,.11705E-3,.88E-6,0
STARLINK-11228 [DTC],2024-141A,2026-05-24T04:58:55.311168,15.69710497,.000091,53.1585,74.0023,76.8141,283.2979,0,U,60398,999,10355,.99074E-5,.612E-5,0
STARLINK-11182 [DTC],2024-141B,2026-05-24T01:34:21.633024,15.69710881,.0000805,53.1580,74.5302,68.6153,291.4951,0,U,60399,999,10358,.56521E-5,.97E-6,0
STARLINK-11234 [DTC],2024-141C,2026-05-23T23:55:35.224608,15.69730054,.0000964,53.1605,74.8147,102.7663,257.3463,0,U,60400,999,10352,.21553E-4,.2025E-4,0
STARLINK-11232 [DTC],2024-141D,2026-05-24T01:20:14.138880,15.69709758,.0000937,53.1595,74.4663,106.5740,253.5381,0,U,60401,999,10358,.6054E-5,.145E-5,0
STARLINK-11139 [DTC],2024-141E,2026-05-24T01:13:10.537824,15.69709582,.0001067,53.1592,74.4404,73.9242,286.1894,0,U,60402,999,10358,.37427E-5,-.135E-5,0
STARLINK-11158 [DTC],2024-141F,2026-05-24T04:09:37.217088,15.69711454,.0000889,53.1582,74.5087,97.8985,262.2133,0,U,60403,999,10354,.20409E-4,.1885E-4,0
STARLINK-11199 [DTC],2024-141G,2026-05-24T02:30:52.597152,15.69707708,.000092,53.1585,74.7874,85.2662,274.8461,0,U,60404,999,10358,.4657E-5,-.24E-6,0
STARLINK-11081 [DTC],2024-141H,2026-05-24T02:23:49.477344,15.69688606,.0000872,53.1584,74.7563,137.3247,222.7839,0,U,60405,999,10353,-.19535E-4,-.2952E-4,0
