STARLINK-32180          
1 60374U 24138V   26143.90099519 -.00001186  00000+0 -26469-4 0  9994
2 60374  53.1615 320.1900 0001242  75.7004 284.4136 15.31694236102146
STARLINK-32281          
1 60375U 24138W   26143.88822294 -.00000248  00000+0  37454-5 0  9990
2 60375  53.1614 320.1130 0001298  96.5862 263.5286 15.30195177102047
STARLINK-32277          
1 60376U 24138X   26144.18325167  .00000660  00000+0  34420-4 0  9998
2 60376  53.1603 319.1090 0001063  94.7240 265.3883 15.30196381102185
STARLINK-32269          
1 60377U 24138Y   26143.90616080  .00000711  00000+0  36135-4 0  9997
2 60377  53.1600 320.2205 0001098  76.8594 283.2529 15.30197633102148
QIANFAN-1               
1 60379U 24140A   26144.18793208  .00000080  00000+0  10518-3 0  9996
2 60379  88.9713 282.4205 0019589 105.6408 254.6906 13.51010345 89284
QIANFAN-2               
1 60380U 24140B   26144.14256924  .00000089  00000+0  11894-3 0  9990
2 60380  88.9700 282.2423 0014654  81.8956 278.3857 13.51005700 89336
QIANFAN-3               
1 60381U 24140C   26144.15080522  .00000097  00000+0  13050-3 0  9996
2 60381  88.9692 282.3618 0015935  92.6145 267.6831 13.51006694 89243
QIANFAN-4               
1 60382U 24140D   26144.12614171  .00000087  00000+0  11630-3 0  9998
2 60382  88.9717 282.3029 0014934  84.1755 276.1099 13.51009106 89364
QIANFAN-5               
1 60383U 24140E   26144.17550794  .00000082  00000+0  10776-3 0  9999
2 60383  88.9691 282.3841 0017266 102.2877 258.0208 13.51008303 89231
QIANFAN-6               
1 60384U 24140F   26144.12201108  .00000087  00000+0  11596-3 0  9993
2 60384  88.9719 282.1798 0015119  89.2254 271.0630 13.51008825 89424
QIANFAN-7               
1 60385U 24140G   26144.13137257  .00000386  00000+0  15042-3 0  9990
2 60385  88.9756 274.6016 0013764 217.8816 142.1411 14.27811629 93565
QIANFAN-8               
1 60386U 24140H   26144.13016844  .00000078  00000+0  10105-3 0  9992
2 60386  88.9720 282.4186 0018587  90.7114 269.6167 13.51005291 89271
QIANFAN-9               
1 60387U 24140J   26144.17966218  .00000083  00000+0  11020-3 0  9999
2 60387  88.9717 282.4856 0018285  90.4246 269.9000 13.51010706 89265
QIANFAN-10              
1 60388U 24140K   26144.18381822  .00000083  00000+0  11017-3 0  9999
2 60388  88.9729 281.8487 0016394  70.5202 289.7718 13.51011542 89391
QIANFAN-11              
1 60389U 24140L   26144.14661089  .00000090  00000+0  12020-3 0  9995
2 60389  88.9653 282.3180 0016318  90.5052 269.7969 13.51006003 89049
QIANFAN-12              
1 60390U 24140M   26144.16732380  .00000083  00000+0  10916-3 0  9996
2 60390  88.9696 282.4301 0015202  97.6734 262.6144 13.51008072 89179
QIANFAN-13              
1 60391U 24140N   26144.13848032  .00000083  00000+0  10890-3 0  9997
2 60391  88.9708 282.5528 0015021 100.1264 260.1583 13.51008121 89190
QIANFAN-14              
1 60392U 24140P   26144.16308338  .00000094  00000+0  12654-3 0  9993
2 60392  88.9687 282.4134 0018721  99.7474 260.5792 13.51009238 89203
QIANFAN-15              
1 60393U 24140Q   26144.17134514  .00000075  00000+0  97588-4 0  9997
2 60393  88.9711 282.4076 0014403  88.1298 272.1503 13.51010998 89198
QIANFAN-16              
1 60394U 24140R   26144.15914731  .00000095  00000+0  12767-3 0  9990
2 60394  88.9714 282.5337 0016665 103.2476 257.0535 13.51005789 89102
QIANFAN-17              
1 60395U 24140S   26144.15486428  .00000095  00000+0  12875-3 0  9998
2 60395  88.9725 282.5979 0017032  97.7044 262.6042 13.51006555 90068
QIANFAN-18              
1 60396U 24140T   26144.13429170  .00000088  00000+0  11705-3 0  9991
2 60396  88.9719 282.1224 0016193  82.6010 277.6981 13.51010863 89450
STARLINK-11228 [DTC]    
1 60398U 24141A   26144.20758462  .00000612  00000+0  99074-5 0  9991
2 60398  53.1585  74.0023 0000910  76.8141 283.2979 15.69710497103551
STARLINK-11182 [DTC]    
1 60399U 24141B   26144.06552816  .00000097  00000+0  56521-5 0  9998
2 60399  53.1580  74.5302 0000805  68.6153 291.4951 15.69710881103588
STARLINK-11234 [DTC]    
1 60400U 24141C   26143.99693547  .00002025  00000+0  21553-4 0  9998
2 60400  53.1605  74.8147 0000964 102.7663 257.3463 15.69730054103528
STARLINK-11232 [DTC]    
1 60401U 24141D   26144.05571920  .00000145  00000+0  60540-5 0  9998
2 60401  53.1595  74.4663 0000937 106.5740 253.5381 15.69709758103584
STARLINK-11139 [DTC]    
1 60402U 24141E   26144.05081641 -.00000135  00000+0  37427-5 0  9993
2 60402  53.1592  74.4404 0001067  73.9242 286.1894 15.69709582103580
STARLINK-11158 [DTC]    
1 60403U 24141F   26144.17334742  .00001885  00000+0  20409-4 0  9993
2 60403  53.1582  74.5087 0000889  97.8985 262.2133 15.69711454103546
STARLINK-11199 [DTC]    
1 60404U 24141G   26144.10477543 -.00000024  00000+0  46570-5 0  9997
2 60404  53.1585  74.7874 0000920  85.2662 274.8461 15.69707708103589
STARLINK-11081 [DTC]    
1 60405U 24141H   26144.09987821 -.00002952  00000+0 -19535-4 0  9994
2 60405  53.1584  74.7563 0000872 137.3247 222.7839 15.69688606103539
